IRIDIUM 26              
1 24903U 97043A   25143.67742634  .00000389  00000+0  12446-3 0  9994
2 24903  86.3936 120.9192 0002365  92.8657 267.2811 14.37125891453226
IRIDIUM 22              
1 24907U 97043E   25143.86575870  .00000342  00000+0  11097-3 0  9995
2 24907  86.3942 124.3580 0002371  88.6635 271.4833 14.35941525453287
DUMMY MASS 1            
1 24925U 97048A   25143.71987752  .00000377  00000+0  39007-4 0  9990
2 24925  86.3341 146.6419 0004904 216.0997 143.9897 14.86967153501491
DUMMY MASS 2            
1 24926U 97048B   25143.54333317  .00000362  00000+0  37575-4 0  9996
2 24926  86.3341 148.3254 0005304 234.9150 125.1578 14.86719469501485
IRIDIUM 29              
1 24944U 97051A   25143.75795694  .00000384  00000+0  12441-3 0  9991
2 24944  86.3961 154.1423 0002325  85.2067 274.9396 14.36447362449768
IRIDIUM 33              
1 24946U 97051C   25143.78275686  .00000288  00000+0  94309-4 0  9997
2 24946  86.3876 153.3900 0008949 144.5392 215.6401 14.34878715449244
IRIDIUM 28              
1 24948U 97051E   25143.74735728  .00000327  00000+0  10303-3 0  9998
2 24948  86.3965 151.6778 0002481 100.8066 259.3410 14.37369566450336
IRIDIUM 36              
1 24967U 97056C   25143.85369387  .00000344  00000+0  10825-3 0  9998
2 24967  86.4000 183.2126 0002605  93.0877 267.0619 14.37591087448729
